start=new Date('2022-07-18T00:00:00.000Z').valueOf();
sats=[{"OBJECT_TYPE":"PAYLOAD","COUNTRY_CODE":"US","ELEMENT_SET_NO":"999","TLE_LINE1":"1 46064U 20055AP  22198.65605433  .00003024  00000-0  22175-3 0  9995","MEAN_MOTION":"15.06414115","RA_OF_ASC_NODE":"331.8635","GP_ID":"208336579","BSTAR":"0.00022175000000","ECCENTRICITY":"0.00014490","OBJECT_ID":"2020-055AP","LAUNCH_DATE":"2020-08-07","NORAD_CAT_ID":"46064","APOAPSIS":"548.174","MEAN_ANOMALY":"287.6618","OBJECT_NAME":"STARLINK-1583","MEAN_MOTION_DOT":"0.00003024","MEAN_MOTION_DDOT":"0.0000000000000","DECAY_DATE":null,"SEMIMAJOR_AXIS":"6925.305","ARG_OF_PERICENTER":"72.4529","CLASSIFICATION_TYPE":"U","PERIAPSIS":"546.167","EPOCH":"2022-07-17T15:44:43.094112","REF_FRAME":"TEME","EPHEMERIS_TYPE":"0","MEAN_ELEMENT_THEORY":"SGP4","PERIOD":"95.591","CENTER_NAME":"EARTH","INCLINATION":"53.0547","SITE":"AFETR","REV_AT_EPOCH":"10841","TLE_LINE2":"2 46064  53.0547 331.8635 0001449  72.4529 287.6618 15.06414115108412","FILE":"3516387","TIME_SYSTEM":"UTC","RCS_SIZE":"LARGE"},{"ECCENTRICITY":"0.00014460","OBJECT_ID":"2020-055AQ","LAUNCH_DATE":"2020-08-07","NORAD_CAT_ID":"46065","APOAPSIS":"548.222","RA_OF_ASC_NODE":"311.5945","GP_ID":"208335837","BSTAR":"0.00012748000000","ELEMENT_SET_NO":"999","TLE_LINE1":"1 46065U 20055AQ  22198.71592604  .00001618  00000-0  12748-3 0  9990","MEAN_MOTION":"15.06397810","OBJECT_TYPE":"PAYLOAD","COUNTRY_CODE":"US","PERIOD":"95.592","CENTER_NAME":"EARTH","INCLINATION":"53.0565","SITE":"AFETR","REV_AT_EPOCH":"10868","TLE_LINE2":"2 46065  53.0565 311.5945 0001446  83.7425 276.3729 15.06397810108688","FILE":"3516387","TIME_SYSTEM":"UTC","RCS_SIZE":"LARGE","PERIAPSIS":"546.219","CLASSIFICATION_TYPE":"U","EPOCH":"2022-07-17T17:10:56.009856","REF_FRAME":"TEME","EPHEMERIS_TYPE":"0","MEAN_ELEMENT_THEORY":"SGP4","MEAN_ANOMALY":"276.3729","OBJECT_NAME":"STARLINK-1515","MEAN_MOTION_DOT":"0.00001618","MEAN_MOTION_DDOT":"0.0000000000000","DECAY_DATE":null,"SEMIMAJOR_AXIS":"6925.355","ARG_OF_PERICENTER":"83.7425"},{"OBJECT_NAME":"STARLINK-1525","MEAN_ANOMALY":"284.8161","DECAY_DATE":null,"MEAN_MOTION_DOT":"0.00003454","MEAN_MOTION_DDOT":"0.0000000000000","ARG_OF_PERICENTER":"75.3005","SEMIMAJOR_AXIS":"6925.331","SITE":"AFETR","INCLINATION":"53.0553","PERIOD":"95.592","CENTER_NAME":"EARTH","TLE_LINE2":"2 46066  53.0553 311.5841 0001600  75.3005 284.8161 15.06405651108692","REV_AT_EPOCH":"10869","RCS_SIZE":"LARGE","TIME_SYSTEM":"UTC","FILE":"3516387","CLASSIFICATION_TYPE":"U","PERIAPSIS":"546.088","REF_FRAME":"TEME","EPHEMERIS_TYPE":"0","EPOCH":"2022-07-17T17:17:35.772288","MEAN_ELEMENT_THEORY":"SGP4","ELEMENT_SET_NO":"999","MEAN_MOTION":"15.06405651","TLE_LINE1":"1 46066U 20055AR  22198.72055292  .00003454  00000-0  25061-3 0  9991","OBJECT_TYPE":"PAYLOAD","COUNTRY_CODE":"US","ECCENTRICITY":"0.00016000","LAUNCH_DATE":"2020-08-07","OBJECT_ID":"2020-055AR","NORAD_CAT_ID":"46066","APOAPSIS":"548.304","RA_OF_ASC_NODE":"311.5841","BSTAR":"0.00025061000000","GP_ID":"208336087"},{"OBJECT_NAME":"STARLINK-1529","MEAN_ANOMALY":"282.3592","DECAY_DATE":null,"MEAN_MOTION_DDOT":"0.0000000000000","MEAN_MOTION_DOT":"-0.00000636","ARG_OF_PERICENTER":"77.7540","SEMIMAJOR_AXIS":"6925.354","PERIAPSIS":"546.330","CLASSIFICATION_TYPE":"U","EPHEMERIS_TYPE":"0","REF_FRAME":"TEME","EPOCH":"2022-07-17T17:21:33.094080","MEAN_ELEMENT_THEORY":"SGP4","SITE":"AFETR","INCLINATION":"53.0556","PERIOD":"95.592","CENTER_NAME":"EARTH","TLE_LINE2":"2 46067  53.0556 311.5516 0001283  77.7540 282.3592 15.06398333108703","REV_AT_EPOCH":"10870","TIME_SYSTEM":"UTC","RCS_SIZE":"LARGE","FILE":"3516387","OBJECT_TYPE":"PAYLOAD","COUNTRY_CODE":"US","ELEMENT_SET_NO":"999","MEAN_MOTION":"15.06398333","TLE_LINE1":"1 46067U 20055AS  22198.72329970 -.00000636  00000-0 -23824-4 0  9996","RA_OF_ASC_NODE":"311.5516","GP_ID":"208336837","BSTAR":"-0.00002382400000","ECCENTRICITY":"0.00012830","LAUNCH_DATE":"2020-08-07","OBJECT_ID":"2020-055AS","NORAD_CAT_ID":"46067","APOAPSIS":"548.107"},{"MEAN_MOTION_DDOT":"0.0000000000000","MEAN_MOTION_DOT":"0.00000147","DECAY_DATE":null,"MEAN_ANOMALY":"296.4569","OBJECT_NAME":"STARLINK-1532","SEMIMAJOR_AXIS":"6925.344","ARG_OF_PERICENTER":"63.6570","REV_AT_EPOCH":"10871","TLE_LINE2":"2 46068  53.0556 311.2050 0001454  63.6570 296.4569 15.06401386108715","PERIOD":"95.592","CENTER_NAME":"EARTH","INCLINATION":"53.0556","SITE":"AFETR","FILE":"3516387","RCS_SIZE":"LARGE","TIME_SYSTEM":"UTC","EPOCH":"2022-07-17T19:13:00.588864","EPHEMERIS_TYPE":"0","REF_FRAME":"TEME","PERIAPSIS":"546.202","CLASSIFICATION_TYPE":"U","MEAN_ELEMENT_THEORY":"SGP4","TLE_LINE1":"1 46068U 20055AT  22198.80070126  .00000147  00000-0  28787-4 0  9990","MEAN_MOTION":"15.06401386","ELEMENT_SET_NO":"999","OBJECT_TYPE":"PAYLOAD","COUNTRY_CODE":"US","OBJECT_ID":"2020-055AT","LAUNCH_DATE":"2020-08-07","ECCENTRICITY":"0.00014540","APOAPSIS":"548.216","NORAD_CAT_ID":"46068","RA_OF_ASC_NODE":"311.2050","BSTAR":"0.00002878700000","GP_ID":"208337079"},{"MEAN_MOTION":"15.06393935","TLE_LINE1":"1 46069U 20055AU  22198.75005315 -.00001765  00000-0 -99618-4 0  9993","ELEMENT_SET_NO":"999","COUNTRY_CODE":"US","OBJECT_TYPE":"PAYLOAD","APOAPSIS":"548.210","NORAD_CAT_ID":"46069","LAUNCH_DATE":"2020-08-07","OBJECT_ID":"2020-055AU","ECCENTRICITY":"0.00014120","BSTAR":"-0.00009961800000","GP_ID":"208335339","RA_OF_ASC_NODE":"311.4435","ARG_OF_PERICENTER":"85.2028","SEMIMAJOR_AXIS":"6925.367","DECAY_DATE":null,"MEAN_MOTION_DDOT":"0.0000000000000","MEAN_MOTION_DOT":"-0.00001765","OBJECT_NAME":"STARLINK-1533","MEAN_ANOMALY":"274.9122","RCS_SIZE":"LARGE","TIME_SYSTEM":"UTC","FILE":"3516387","TLE_LINE2":"2 46069  53.0565 311.4435 0001412  85.2028 274.9122 15.06393935108713","REV_AT_EPOCH":"10871","SITE":"AFETR","INCLINATION":"53.0565","CENTER_NAME":"EARTH","PERIOD":"95.593","MEAN_ELEMENT_THEORY":"SGP4","REF_FRAME":"TEME","EPHEMERIS_TYPE":"0","EPOCH":"2022-07-17T18:00:04.592160","CLASSIFICATION_TYPE":"U","PERIAPSIS":"546.254"},{"TLE_LINE1":"1 46070U 20055AV  22198.69844536  .00004453  00000-0  31765-3 0  9997","MEAN_MOTION":"15.06397822","ELEMENT_SET_NO":"999","COUNTRY_CODE":"US","OBJECT_TYPE":"PAYLOAD","APOAPSIS":"548.121","NORAD_CAT_ID":"46070","OBJECT_ID":"2020-055AV","LAUNCH_DATE":"2020-08-07","ECCENTRICITY":"0.00013010","BSTAR":"0.00031765000000","GP_ID":"208335589","RA_OF_ASC_NODE":"311.6801","SEMIMAJOR_AXIS":"6925.355","ARG_OF_PERICENTER":"87.6223","MEAN_MOTION_DDOT":"0.0000000000000","MEAN_MOTION_DOT":"0.00004453","DECAY_DATE":null,"MEAN_ANOMALY":"272.4915","OBJECT_NAME":"STARLINK-1536","FILE":"3516387","TIME_SYSTEM":"UTC","RCS_SIZE":"LARGE","REV_AT_EPOCH":"10870","TLE_LINE2":"2 46070  53.0537 311.6801 0001301  87.6223 272.4915 15.06397822108704","CENTER_NAME":"EARTH","PERIOD":"95.592","SITE":"AFETR","INCLINATION":"53.0537","MEAN_ELEMENT_THEORY":"SGP4","EPOCH":"2022-07-17T16:45:45.679104","REF_FRAME":"TEME","EPHEMERIS_TYPE":"0","CLASSIFICATION_TYPE":"U","PERIAPSIS":"546.319"},{"PERIAPSIS":"546.201","CLASSIFICATION_TYPE":"U","REF_FRAME":"TEME","EPHEMERIS_TYPE":"0","EPOCH":"2022-07-17T17:12:18.503712","MEAN_ELEMENT_THEORY":"SGP4","INCLINATION":"53.0551","SITE":"AFETR","PERIOD":"95.592","CENTER_NAME":"EARTH","TLE_LINE2":"2 46071  53.0551 311.5798 0001417  71.0466 289.0676 15.06410067108704","REV_AT_EPOCH":"10870","TIME_SYSTEM":"UTC","RCS_SIZE":"LARGE","FILE":"3516387","OBJECT_NAME":"STARLINK-1538","MEAN_ANOMALY":"289.0676","DECAY_DATE":null,"MEAN_MOTION_DDOT":"0.0000000000000","MEAN_MOTION_DOT":"0.00004553","ARG_OF_PERICENTER":"71.0466","SEMIMAJOR_AXIS":"6925.318","RA_OF_ASC_NODE":"311.5798","GP_ID":"208336338","BSTAR":"0.00032426000000","ECCENTRICITY":"0.00014170","LAUNCH_DATE":"2020-08-07","OBJECT_ID":"2020-055AW","NORAD_CAT_ID":"46071","APOAPSIS":"548.164","OBJECT_TYPE":"PAYLOAD","COUNTRY_CODE":"US","ELEMENT_SET_NO":"999","MEAN_MOTION":"15.06410067","TLE_LINE1":"1 46071U 20055AW  22198.71688083  .00004553  00000-0  32426-3 0  9990"},{"APOAPSIS":"548.177","NORAD_CAT_ID":"46072","LAUNCH_DATE":"2020-08-07","OBJECT_ID":"2020-055AX","ECCENTRICITY":"0.00013980","GP_ID":"208336580","BSTAR":"0.00031649000000","RA_OF_ASC_NODE":"310.8936","MEAN_MOTION":"15.06401592","TLE_LINE1":"1 46072U 20055AX  22198.87442564  .00004436  00000-0  31649-3 0  9996","ELEMENT_SET_NO":"999","COUNTRY_CODE":"US","OBJECT_TYPE":"PAYLOAD","TIME_SYSTEM":"UTC","RCS_SIZE":"LARGE","FILE":"3516387","TLE_LINE2":"2 46072  53.0549 310.8936 0001398  69.0758 291.0381 15.06401592108717","REV_AT_EPOCH":"10871","INCLINATION":"53.0549","SITE":"AFETR","CENTER_NAME":"EARTH","PERIOD":"95.592","MEAN_ELEMENT_THEORY":"SGP4","REF_FRAME":"TEME","EPHEMERIS_TYPE":"0","EPOCH":"2022-07-17T20:59:10.375296","PERIAPSIS":"546.241","CLASSIFICATION_TYPE":"U","ARG_OF_PERICENTER":"69.0758","SEMIMAJOR_AXIS":"6925.344","DECAY_DATE":null,"MEAN_MOTION_DDOT":"0.0000000000000","MEAN_MOTION_DOT":"0.00004436","OBJECT_NAME":"STARLINK-1539","MEAN_ANOMALY":"291.0381"},{"ELEMENT_SET_NO":"999","MEAN_MOTION":"15.06405410","TLE_LINE1":"1 46073U 20055AY  22198.82376411  .00007517  00000-0  52289-3 0  9995","COUNTRY_CODE":"US","OBJECT_TYPE":"PAYLOAD","NORAD_CAT_ID":"46073","APOAPSIS":"548.223","ECCENTRICITY":"0.00014820","LAUNCH_DATE":"2020-08-07","OBJECT_ID":"2020-055AY","BSTAR":"0.00052289000000","GP_ID":"208335838","RA_OF_ASC_NODE":"311.1224","ARG_OF_PERICENTER":"68.4640","SEMIMAJOR_AXIS":"6925.332","OBJECT_NAME":"STARLINK-1542","MEAN_ANOMALY":"291.6507","DECAY_DATE":null,"MEAN_MOTION_DOT":"0.00007517","MEAN_MOTION_DDOT":"0.0000000000000","RCS_SIZE":"LARGE","TIME_SYSTEM":"UTC","FILE":"3516387","INCLINATION":"53.0530","SITE":"AFETR","PERIOD":"95.592","CENTER_NAME":"EARTH","TLE_LINE2":"2 46073  53.0530 311.1224 0001482  68.4640 291.6507 15.06405410108718","REV_AT_EPOCH":"10871","MEAN_ELEMENT_THEORY":"SGP4","PERIAPSIS":"546.171","CLASSIFICATION_TYPE":"U","REF_FRAME":"TEME","EPHEMERIS_TYPE":"0","EPOCH":"2022-07-17T19:46:13.219104"}];
